{
  "type": "FeatureCollection",
  "features": [
    {
      "type": "Feature",
      "properties": {
        "norad_id": 41948,
        "name": "CARTOSAT-2D",
        "group": "resource",
        "lat": -78.71864183464187,
        "lon": -166.09270110317044,
        "alt_km": 518.4046191200896,
        "timestamp": "2025-12-23T11:34:47.839435+00:00",
        "meta_object_name": "CARTOSAT-2D",
        "meta_object_id": "2017-008A",
        "meta_epoch": "2025-12-23T04:06:33.865056",
        "meta_mean_motion": 15.19165618,
        "meta_eccentricity": 0.0005181,
        "meta_inclination": 97.4374,
        "meta_ra_of_asc_node": 54.5098,
        "meta_arg_of_pericenter": 123.5007,
        "meta_mean_anomaly": 236.6723,
        "meta_ephemeris_type": 0,
        "meta_classification_type": "U",
        "meta_norad_cat_id": 41948,
        "meta_element_set_no": 999,
        "meta_rev_at_epoch": 49085,
        "meta_bstar": 0.0002436,
        "meta_mean_motion_dot": 5.056e-05,
        "meta_mean_motion_ddot": 0,
        "tle_line1": "1 41948U 17008A   25357.17122529  .00005056  00000+0  24360-3 0  9996",
        "tle_line2": "2 41948  97.4374  54.5098 0005181 123.5007 236.6723 15.19165618490854"
      },
      "geometry": {
        "type": "Point",
        "coordinates": [
          -166.09270110317044,
          -78.71864183464187
        ]
      }
    },
    {
      "type": "Feature",
      "properties": {
        "norad_id": 42063,
        "name": "SENTINEL-2B",
        "group": "resource",
        "lat": 47.045898360570234,
        "lon": 60.45551156665013,
        "alt_km": 784.2097558016821,
        "timestamp": "2025-12-23T11:34:47.839444+00:00",
        "meta_object_name": "SENTINEL-2B",
        "meta_object_id": "2017-013A",
        "meta_epoch": "2025-12-23T04:38:39.431616",
        "meta_mean_motion": 14.30814365,
        "meta_eccentricity": 0.0001186,
        "meta_inclination": 98.5707,
        "meta_ra_of_asc_node": 69.4927,
        "meta_arg_of_pericenter": 92.3157,
        "meta_mean_anomaly": 267.8161,
        "meta_ephemeris_type": 0,
        "meta_classification_type": "U",
        "meta_norad_cat_id": 42063,
        "meta_element_set_no": 999,
        "meta_rev_at_epoch": 45947,
        "meta_bstar": 4.0402e-05,
        "meta_mean_motion_dot": 6.2e-07,
        "meta_mean_motion_ddot": 0,
        "tle_line1": "1 42063U 17013A   25357.19351194  .00000062  00000+0  40402-4 0  9993",
        "tle_line2": "2 42063  98.5707  69.4927 0001186  92.3157 267.8161 14.30814365459478"
      },
      "geometry": {
        "type": "Point",
        "coordinates": [
          60.45551156665013,
          47.045898360570234
        ]
      }
    },
    {
      "type": "Feature",
      "properties": {
        "norad_id": 42767,
        "name": "CARTOSAT-2E",
        "group": "resource",
        "lat": 9.115206625010373,
        "lon": -123.86778682566485,
        "alt_km": 507.94160376963464,
        "timestamp": "2025-12-23T11:34:47.839453+00:00",
        "meta_object_name": "CARTOSAT-2E",
        "meta_object_id": "2017-036C",
        "meta_epoch": "2025-12-23T04:30:29.642112",
        "meta_mean_motion": 15.19295641,
        "meta_eccentricity": 0.0002818,
        "meta_inclination": 97.4537,
        "meta_ra_of_asc_node": 54.6378,
        "meta_arg_of_pericenter": 190.3023,
        "meta_mean_anomaly": 169.8154,
        "meta_ephemeris_type": 0,
        "meta_classification_type": "U",
        "meta_norad_cat_id": 42767,
        "meta_element_set_no": 999,
        "meta_rev_at_epoch": 47142,
        "meta_bstar": 0.00024667,
        "meta_mean_motion_dot": 5.138e-05,
        "meta_mean_motion_ddot": 0,
        "tle_line1": "1 42767U 17036C   25357.18784308  .00005138  00000+0  24667-3 0  9998",
        "tle_line2": "2 42767  97.4537  54.6378 0002818 190.3023 169.8154 15.19295641471428"
      },
      "geometry": {
        "type": "Point",
        "coordinates": [
          -123.86778682566485,
          9.115206625010373
        ]
      }
    },
    {
      "type": "Feature",
      "properties": {
        "norad_id": 42920,
        "name": "FORMOSAT-5",
        "group": "resource",
        "lat": 74.44244144009474,
        "lon": -77.03195385845262,
        "alt_km": 722.6604144450821,
        "timestamp": "2025-12-23T11:34:47.839462+00:00",
        "meta_object_name": "FORMOSAT-5",
        "meta_object_id": "2017-049A",
        "meta_epoch": "2025-12-23T02:49:44.069088",
        "meta_mean_motion": 14.5076633,
        "meta_eccentricity": 0.0009823,
        "meta_inclination": 98.244,
        "meta_ra_of_asc_node": 71.2281,
        "meta_arg_of_pericenter": 266.0431,
        "meta_mean_anomaly": 93.9641,
        "meta_ephemeris_type": 0,
        "meta_classification_type": "U",
        "meta_norad_cat_id": 42920,
        "meta_element_set_no": 999,
        "meta_rev_at_epoch": 44114,
        "meta_bstar": 6.7781e-05,
        "meta_mean_motion_dot": 2.23e-06,
        "meta_mean_motion_ddot": 0,
        "tle_line1": "1 42920U 17049A   25357.11787117  .00000223  00000+0  67781-4 0  9992",
        "tle_line2": "2 42920  98.2440  71.2281 0009823 266.0431  93.9641 14.50766330441142"
      },
      "geometry": {
        "type": "Point",
        "coordinates": [
          -77.03195385845262,
          74.44244144009474
        ]
      }
    },
    {
      "type": "Feature",
      "properties": {
        "norad_id": 42969,
        "name": "SENTINEL-5P",
        "group": "resource",
        "lat": 9.057655760492082,
        "lon": -65.43984713034021,
        "alt_km": 828.5101526223307,
        "timestamp": "2025-12-23T11:34:47.839471+00:00",
        "meta_object_name": "SENTINEL-5P",
        "meta_object_id": "2017-064A",
        "meta_epoch": "2025-12-22T20:18:42.950880",
        "meta_mean_motion": 14.19519853,
        "meta_eccentricity": 0.00010225,
        "meta_inclination": 98.78,
        "meta_ra_of_asc_node": 295.3414,
        "meta_arg_of_pericenter": 91.3711,
        "meta_mean_anomaly": 268.7582,
        "meta_ephemeris_type": 0,
        "meta_classification_type": "U",
        "meta_norad_cat_id": 42969,
        "meta_element_set_no": 999,
        "meta_rev_at_epoch": 42454,
        "meta_bstar": 5.1443237e-05,
        "meta_mean_motion_dot": 6.4e-07,
        "meta_mean_motion_ddot": 0,
        "tle_line1": "1 42969U 17064A   25356.84633045  .00000064  00000+0  51443-4 0  9992",
        "tle_line2": "2 42969  98.7800 295.3414 0001022  91.3711 268.7582 14.19519853424542"
      },
      "geometry": {
        "type": "Point",
        "coordinates": [
          -65.43984713034021,
          9.057655760492082
        ]
      }
    },
    {
      "type": "Feature",
      "properties": {
        "norad_id": 42987,
        "name": "SKYSAT-C11",
        "group": "resource",
        "lat": 30.270854059470416,
        "lon": 130.8840029270642,
        "alt_km": 421.0971107186542,
        "timestamp": "2025-12-23T11:34:47.839480+00:00",
        "meta_object_name": "SKYSAT-C11",
        "meta_object_id": "2017-068A",
        "meta_epoch": "2025-12-22T19:55:58.994688",
        "meta_mean_motion": 15.47855461,
        "meta_eccentricity": 0.000117,
        "meta_inclination": 97.4148,
        "meta_ra_of_asc_node": 134.575,
        "meta_arg_of_pericenter": 96.9665,
        "meta_mean_anomaly": 263.1718,
        "meta_ephemeris_type": 0,
        "meta_classification_type": "U",
        "meta_norad_cat_id": 42987,
        "meta_element_set_no": 999,
        "meta_rev_at_epoch": 45587,
        "meta_bstar": 0.00044558877,
        "meta_mean_motion_dot": 0.00023113,
        "meta_mean_motion_ddot": 0,
        "tle_line1": "1 42987U 17068A   25356.83054392  .00023113  00000+0  44559-3 0  9996",
        "tle_line2": "2 42987  97.4148 134.5750 0001170  96.9665 263.1718 15.47855461455873"
      },
      "geometry": {
        "type": "Point",
        "coordinates": [
          130.8840029270642,
          30.270854059470416
        ]
      }
    },
    {
      "type": "Feature",
      "properties": {
        "norad_id": 42988,
        "name": "SKYSAT-C10",
        "group": "resource",
        "lat": -52.320652457258745,
        "lon": -61.35924228743674,
        "alt_km": 479.4493724541144,
        "timestamp": "2025-12-23T11:34:47.839489+00:00",
        "meta_object_name": "SKYSAT-C10",
        "meta_object_id": "2017-068B",
        "meta_epoch": "2025-12-23T02:43:49.664928",
        "meta_mean_motion": 15.32271629,
        "meta_eccentricity": 0.0005354,
        "meta_inclination": 97.4268,
        "meta_ra_of_asc_node": 127.9949,
        "meta_arg_of_pericenter": 75.3201,
        "meta_mean_anomaly": 284.8633,
        "meta_ephemeris_type": 0,
        "meta_classification_type": "U",
        "meta_norad_cat_id": 42988,
        "meta_element_set_no": 999,
        "meta_rev_at_epoch": 45538,
        "meta_bstar": 0.00038089,
        "meta_mean_motion_dot": 0.000118,
        "meta_mean_motion_ddot": 0,
        "tle_line1": "1 42988U 17068B   25357.11376927  .00011800  00000+0  38089-3 0  9991",
        "tle_line2": "2 42988  97.4268 127.9949 0005354  75.3201 284.8633 15.32271629455382"
      },
      "geometry": {
        "type": "Point",
        "coordinates": [
          -61.35924228743674,
          -52.320652457258745
        ]
      }
    }
  ]
}